IRIDIUM 921             
1 24873U 97034E   24352.64375779  .00171072  00000+0  13623-2 0  9995
2 24873  86.3687 195.6150 0001641  51.7938 308.3480 15.70679604503892
IRIDIUM 26              
1 24903U 97043A   24352.58472875  .00000807  00000+0  26650-3 0  9999
2 24903  86.3980 186.8281 0001932  81.8936 278.2481 14.36852881430665
IRIDIUM 22              
1 24907U 97043E   24352.64510386  .00000707  00000+0  23827-3 0  9992
2 24907  86.3984 190.1822 0001978  89.1285 271.0138 14.35698357430711
DUMMY MASS 1            
1 24925U 97048A   24352.57092183  .00000807  00000+0  87629-4 0  9991
2 24925  86.3362 219.2231 0009034  75.1172 285.1052 14.86680959478144
DUMMY MASS 2            
1 24926U 97048B   24352.57024944  .00000803  00000+0  87743-4 0  9995
2 24926  86.3360 220.7972 0009902  83.4508 276.7843 14.86435534477927
IRIDIUM 29              
1 24944U 97051A   24352.59026156  .00000748  00000+0  25004-3 0  9997
2 24944  86.3972 219.9874 0002146  89.1392 271.0051 14.36164929427201
IRIDIUM 33              
1 24946U 97051C   24352.72679070  .00000486  00000+0  16474-3 0  9993
2 24946  86.3890 219.1785 0006605 323.0445  37.0295 14.34688444426736
IRIDIUM 28              
1 24948U 97051E   24352.68164439  .00000690  00000+0  22583-3 0  9993
2 24948  86.3981 217.5692 0001785  73.5817 286.5576 14.37111135427849
