<?xml version="1.0" encoding="UTF-8"?>
<ndm xmlns:xsi="http://www.w3.org/2001/XMLSchema-instance" xsi:noNamespaceSchemaLocation="https://sanaregistry.org/r/ndmxml_unqualified/ndmxml-2.0.0-master-2.0.xsd">
<omm id="CCSDS_OMM_VERS" version="2.0">
<header><CREATION_DATE/><ORIGINATOR/></header><body><segment><metadata><OBJECT_NAME>IRIDIUM 921</OBJECT_NAME><OBJECT_ID>1997-034E</OBJECT_ID><CENTER_NAME>EARTH</CENTER_NAME><REF_FRAME>TEME</REF_FRAME><TIME_SYSTEM>UTC</TIME_SYSTEM><MEAN_ELEMENT_THEORY>SGP4</MEAN_ELEMENT_THEORY></metadata><data><meanElements><EPOCH>2024-12-17T15:27:00.673056</EPOCH><MEAN_MOTION>15.70679604</MEAN_MOTION><ECCENTRICITY>.0001641</ECCENTRICITY><INCLINATION>86.3687</INCLINATION><RA_OF_ASC_NODE>195.6150</RA_OF_ASC_NODE><ARG_OF_PERICENTER>51.7938</ARG_OF_PERICENTER><MEAN_ANOMALY>308.3480</MEAN_ANOMALY></meanElements><tleParameters><EPHEMERIS_TYPE>0</EPHEMERIS_TYPE><CLASSIFICATION_TYPE>U</CLASSIFICATION_TYPE><NORAD_CAT_ID>24873</NORAD_CAT_ID><ELEMENT_SET_NO>999</ELEMENT_SET_NO><REV_AT_EPOCH>50389</REV_AT_EPOCH><BSTAR>.13623E-2</BSTAR><MEAN_MOTION_DOT>.171072E-2</MEAN_MOTION_DOT><MEAN_MOTION_DDOT>0</MEAN_MOTION_DDOT></tleParameters></data></segment></body></omm>
<omm id="CCSDS_OMM_VERS" version="2.0">
<header><CREATION_DATE/><ORIGINATOR/></header><body><segment><metadata><OBJECT_NAME>IRIDIUM 26</OBJECT_NAME><OBJECT_ID>1997-043A</OBJECT_ID><CENTER_NAME>EARTH</CENTER_NAME><REF_FRAME>TEME</REF_FRAME><TIME_SYSTEM>UTC</TIME_SYSTEM><MEAN_ELEMENT_THEORY>SGP4</MEAN_ELEMENT_THEORY></metadata><data><meanElements><EPOCH>2024-12-17T14:02:00.564000</EPOCH><MEAN_MOTION>14.36852881</MEAN_MOTION><ECCENTRICITY>.0001932</ECCENTRICITY><INCLINATION>86.3980</INCLINATION><RA_OF_ASC_NODE>186.8281</RA_OF_ASC_NODE><ARG_OF_PERICENTER>81.8936</ARG_OF_PERICENTER><MEAN_ANOMALY>278.2481</MEAN_ANOMALY></meanElements><tleParameters><EPHEMERIS_TYPE>0</EPHEMERIS_TYPE><CLASSIFICATION_TYPE>U</CLASSIFICATION_TYPE><NORAD_CAT_ID>24903</NORAD_CAT_ID><ELEMENT_SET_NO>999</ELEMENT_SET_NO><REV_AT_EPOCH>43066</REV_AT_EPOCH><BSTAR>.2665E-3</BSTAR><MEAN_MOTION_DOT>.807E-5</MEAN_MOTION_DOT><MEAN_MOTION_DDOT>0</MEAN_MOTION_DDOT></tleParameters></data></segment></body></omm>
<omm id="CCSDS_OMM_VERS" version="2.0">
<header><CREATION_DATE/><ORIGINATOR/></header><body><segment><metadata><OBJECT_NAME>IRIDIUM 22</OBJECT_NAME><OBJECT_ID>1997-043E</OBJECT_ID><CENTER_NAME>EARTH</CENTER_NAME><REF_FRAME>TEME</REF_FRAME><TIME_SYSTEM>UTC</TIME_SYSTEM><MEAN_ELEMENT_THEORY>SGP4</MEAN_ELEMENT_THEORY></metadata><data><meanElements><EPOCH>2024-12-17T15:28:56.973504</EPOCH><MEAN_MOTION>14.35698357</MEAN_MOTION><ECCENTRICITY>.0001978</ECCENTRICITY><INCLINATION>86.3984</INCLINATION><RA_OF_ASC_NODE>190.1822</RA_OF_ASC_NODE><ARG_OF_PERICENTER>89.1285</ARG_OF_PERICENTER><MEAN_ANOMALY>271.0138</MEAN_ANOMALY></meanElements><tleParameters><EPHEMERIS_TYPE>0</EPHEMERIS_TYPE><CLASSIFICATION_TYPE>U</CLASSIFICATION_TYPE><NORAD_CAT_ID>24907</NORAD_CAT_ID><ELEMENT_SET_NO>999</ELEMENT_SET_NO><REV_AT_EPOCH>43071</REV_AT_EPOCH><BSTAR>.23827E-3</BSTAR><MEAN_MOTION_DOT>.707E-5</MEAN_MOTION_DOT><MEAN_MOTION_DDOT>0</MEAN_MOTION_DDOT></tleParameters></data></segment></body></omm>
<omm id="CCSDS_OMM_VERS" version="2.0">
<header><CREATION_DATE/><ORIGINATOR/></header><body><segment><metadata><OBJECT_NAME>DUMMY MASS 1</OBJECT_NAME><OBJECT_ID>1997-048A</OBJECT_ID><CENTER_NAME>EARTH</CENTER_NAME><REF_FRAME>TEME</REF_FRAME><TIME_SYSTEM>UTC</TIME_SYSTEM><MEAN_ELEMENT_THEORY>SGP4</MEAN_ELEMENT_THEORY></metadata><data><meanElements><EPOCH>2024-12-17T13:42:07.646112</EPOCH><MEAN_MOTION>14.86680959</MEAN_MOTION><ECCENTRICITY>.0009034</ECCENTRICITY><INCLINATION>86.3362</INCLINATION><RA_OF_ASC_NODE>219.2231</RA_OF_ASC_NODE><ARG_OF_PERICENTER>75.1172</ARG_OF_PERICENTER><MEAN_ANOMALY>285.1052</MEAN_ANOMALY></meanElements><tleParameters><EPHEMERIS_TYPE>0</EPHEMERIS_TYPE><CLASSIFICATION_TYPE>U</CLASSIFICATION_TYPE><NORAD_CAT_ID>24925</NORAD_CAT_ID><ELEMENT_SET_NO>999</ELEMENT_SET_NO><REV_AT_EPOCH>47814</REV_AT_EPOCH><BSTAR>.87629E-4</BSTAR><MEAN_MOTION_DOT>.807E-5</MEAN_MOTION_DOT><MEAN_MOTION_DDOT>0</MEAN_MOTION_DDOT></tleParameters></data></segment></body></omm>
<omm id="CCSDS_OMM_VERS" version="2.0">
<header><CREATION_DATE/><ORIGINATOR/></header><body><segment><metadata><OBJECT_NAME>DUMMY MASS 2</OBJECT_NAME><OBJECT_ID>1997-048B</OBJECT_ID><CENTER_NAME>EARTH</CENTER_NAME><REF_FRAME>TEME</REF_FRAME><TIME_SYSTEM>UTC</TIME_SYSTEM><MEAN_ELEMENT_THEORY>SGP4</MEAN_ELEMENT_THEORY></metadata><data><meanElements><EPOCH>2024-12-17T13:41:09.551616</EPOCH><MEAN_MOTION>14.86435534</MEAN_MOTION><ECCENTRICITY>.0009902</ECCENTRICITY><INCLINATION>86.3360</INCLINATION><RA_OF_ASC_NODE>220.7972</RA_OF_ASC_NODE><ARG_OF_PERICENTER>83.4508</ARG_OF_PERICENTER><MEAN_ANOMALY>276.7843</MEAN_ANOMALY></meanElements><tleParameters><EPHEMERIS_TYPE>0</EPHEMERIS_TYPE><CLASSIFICATION_TYPE>U</CLASSIFICATION_TYPE><NORAD_CAT_ID>24926</NORAD_CAT_ID><ELEMENT_SET_NO>999</ELEMENT_SET_NO><REV_AT_EPOCH>47792</REV_AT_EPOCH><BSTAR>.87743E-4</BSTAR><MEAN_MOTION_DOT>.803E-5</MEAN_MOTION_DOT><MEAN_MOTION_DDOT>0</MEAN_MOTION_DDOT></tleParameters></data></segment></body></omm>
<omm id="CCSDS_OMM_VERS" version="2.0">
<header><CREATION_DATE/><ORIGINATOR/></header><body><segment><metadata><OBJECT_NAME>IRIDIUM 29</OBJECT_NAME><OBJECT_ID>1997-051A</OBJECT_ID><CENTER_NAME>EARTH</CENTER_NAME><REF_FRAME>TEME</REF_FRAME><TIME_SYSTEM>UTC</TIME_SYSTEM><MEAN_ELEMENT_THEORY>SGP4</MEAN_ELEMENT_THEORY></metadata><data><meanElements><EPOCH>2024-12-17T14:09:58.598784</EPOCH><MEAN_MOTION>14.36164929</MEAN_MOTION><ECCENTRICITY>.0002146</ECCENTRICITY><INCLINATION>86.3972</INCLINATION><RA_OF_ASC_NODE>219.9874</RA_OF_ASC_NODE><ARG_OF_PERICENTER>89.1392</ARG_OF_PERICENTER><MEAN_ANOMALY>271.0051</MEAN_ANOMALY></meanElements><tleParameters><EPHEMERIS_TYPE>0</EPHEMERIS_TYPE><CLASSIFICATION_TYPE>U</CLASSIFICATION_TYPE><NORAD_CAT_ID>24944</NORAD_CAT_ID><ELEMENT_SET_NO>999</ELEMENT_SET_NO><REV_AT_EPOCH>42720</REV_AT_EPOCH><BSTAR>.25004E-3</BSTAR><MEAN_MOTION_DOT>.748E-5</MEAN_MOTION_DOT><MEAN_MOTION_DDOT>0</MEAN_MOTION_DDOT></tleParameters></data></segment></body></omm>
<omm id="CCSDS_OMM_VERS" version="2.0">
<header><CREATION_DATE/><ORIGINATOR/></header><body><segment><metadata><OBJECT_NAME>IRIDIUM 33</OBJECT_NAME><OBJECT_ID>1997-051C</OBJECT_ID><CENTER_NAME>EARTH</CENTER_NAME><REF_FRAME>TEME</REF_FRAME><TIME_SYSTEM>UTC</TIME_SYSTEM><MEAN_ELEMENT_THEORY>SGP4</MEAN_ELEMENT_THEORY></metadata><data><meanElements><EPOCH>2024-12-17T17:26:34.716480</EPOCH><MEAN_MOTION>14.34688444</MEAN_MOTION><ECCENTRICITY>.0006605</ECCENTRICITY><INCLINATION>86.3890</INCLINATION><RA_OF_ASC_NODE>219.1785</RA_OF_ASC_NODE><ARG_OF_PERICENTER>323.0445</ARG_OF_PERICENTER><MEAN_ANOMALY>37.0295</MEAN_ANOMALY></meanElements><tleParameters><EPHEMERIS_TYPE>0</EPHEMERIS_TYPE><CLASSIFICATION_TYPE>U</CLASSIFICATION_TYPE><NORAD_CAT_ID>24946</NORAD_CAT_ID><ELEMENT_SET_NO>999</ELEMENT_SET_NO><REV_AT_EPOCH>42673</REV_AT_EPOCH><BSTAR>.16474E-3</BSTAR><MEAN_MOTION_DOT>.486E-5</MEAN_MOTION_DOT><MEAN_MOTION_DDOT>0</MEAN_MOTION_DDOT></tleParameters></data></segment></body></omm>
<omm id="CCSDS_OMM_VERS" version="2.0">
<header><CREATION_DATE/><ORIGINATOR/></header><body><segment><metadata><OBJECT_NAME>IRIDIUM 28</OBJECT_NAME><OBJECT_ID>1997-051E</OBJECT_ID><CENTER_NAME>EARTH</CENTER_NAME><REF_FRAME>TEME</REF_FRAME><TIME_SYSTEM>UTC</TIME_SYSTEM><MEAN_ELEMENT_THEORY>SGP4</MEAN_ELEMENT_THEORY></metadata><data><meanElements><EPOCH>2024-12-17T16:21:34.075296</EPOCH><MEAN_MOTION>14.37111135</MEAN_MOTION><ECCENTRICITY>.0001785</ECCENTRICITY><INCLINATION>86.3981</INCLINATION><RA_OF_ASC_NODE>217.5692</RA_OF_ASC_NODE><ARG_OF_PERICENTER>73.5817</ARG_OF_PERICENTER><MEAN_ANOMALY>286.5576</MEAN_ANOMALY></meanElements><tleParameters><EPHEMERIS_TYPE>0</EPHEMERIS_TYPE><CLASSIFICATION_TYPE>U</CLASSIFICATION_TYPE><NORAD_CAT_ID>24948</NORAD_CAT_ID><ELEMENT_SET_NO>999</ELEMENT_SET_NO><REV_AT_EPOCH>42784</REV_AT_EPOCH><BSTAR>.22583E-3</BSTAR><MEAN_MOTION_DOT>.69E-5</MEAN_MOTION_DOT><MEAN_MOTION_DDOT>0</MEAN_MOTION_DDOT></tleParameters></data></segment></body></omm>

</ndm>
